ORBCOMM FM20            
1 25416U 98046D   25363.41757297  .00001570  00000+0  56428-3 0  9996
2 25416  44.9955 336.3895 0002202 276.2385  83.8213 14.37705658432350
ORBCOMM FM16            
1 25417U 98046E   25363.79637316  .00002465  00000+0  82674-3 0  9993
2 25417  44.9941 323.4778 0004472 233.1788 126.8651 14.39586934432432
ORBCOMM FM15            
1 25418U 98046F   25362.64200039  .00001679  00000+0  58211-3 0  9991
2 25418  44.9982 334.7051 0004272 230.0316 130.0158 14.39207628432257
ORBCOMM FM14            
1 25419U 98046G   25362.26057068  .00001740  00000+0  59658-3 0  9997
2 25419  44.9971 334.1588 0003025 236.3528 123.7032 14.39626203432179
ORBCOMM FM13            
1 25420U 98046H   25362.27326687  .00001429  00000+0  51231-3 0  9999
2 25420  44.9987 344.0525 0004398 200.6214 159.4458 14.38235771431171
ORBCOMM FM21            
1 25475U 98053A   25363.44002112  .00001374  00000+0  49830-3 0  9992
2 25475  45.0087  64.5289 0001997 200.9444 159.1323 14.37833607425346
ORBCOMM FM22            
1 25476U 98053B   25363.67432174  .00001895  00000+0  65377-3 0  9995
2 25476  45.0079  56.5999 0002769 171.9100 188.1794 14.39016167425420
ORBCOMM FM23            
1 25477U 98053C   25363.48185100  .00001673  00000+0  59370-3 0  9999
2 25477  45.0085  66.1397 0002281 174.7858 185.3014 14.38076568425500
