<?xml version="1.0" encoding="UTF-8"?>
<ndm xmlns:xsi="http://www.w3.org/2001/XMLSchema-instance" xsi:noNamespaceSchemaLocation="https://sanaregistry.org/r/ndmxml_unqualified/ndmxml-2.0.0-master-2.0.xsd">
<omm id="CCSDS_OMM_VERS" version="2.0">
<header><CREATION_DATE/><ORIGINATOR/></header><body><segment><metadata><OBJECT_NAME>ORBCOMM FM20</OBJECT_NAME><OBJECT_ID>1998-046D</OBJECT_ID><CENTER_NAME>EARTH</CENTER_NAME><REF_FRAME>TEME</REF_FRAME><TIME_SYSTEM>UTC</TIME_SYSTEM><MEAN_ELEMENT_THEORY>SGP4</MEAN_ELEMENT_THEORY></metadata><data><meanElements><EPOCH>2025-12-29T10:01:18.304608</EPOCH><MEAN_MOTION>14.37705658</MEAN_MOTION><ECCENTRICITY>.00022021</ECCENTRICITY><INCLINATION>44.9955</INCLINATION><RA_OF_ASC_NODE>336.3895</RA_OF_ASC_NODE><ARG_OF_PERICENTER>276.2385</ARG_OF_PERICENTER><MEAN_ANOMALY>83.8213</MEAN_ANOMALY></meanElements><tleParameters><EPHEMERIS_TYPE>0</EPHEMERIS_TYPE><CLASSIFICATION_TYPE>U</CLASSIFICATION_TYPE><NORAD_CAT_ID>25416</NORAD_CAT_ID><ELEMENT_SET_NO>999</ELEMENT_SET_NO><REV_AT_EPOCH>43235</REV_AT_EPOCH><BSTAR>.56428306E-3</BSTAR><MEAN_MOTION_DOT>.157E-4</MEAN_MOTION_DOT><MEAN_MOTION_DDOT>0</MEAN_MOTION_DDOT></tleParameters></data></segment></body></omm>
<omm id="CCSDS_OMM_VERS" version="2.0">
<header><CREATION_DATE/><ORIGINATOR/></header><body><segment><metadata><OBJECT_NAME>ORBCOMM FM16</OBJECT_NAME><OBJECT_ID>1998-046E</OBJECT_ID><CENTER_NAME>EARTH</CENTER_NAME><REF_FRAME>TEME</REF_FRAME><TIME_SYSTEM>UTC</TIME_SYSTEM><MEAN_ELEMENT_THEORY>SGP4</MEAN_ELEMENT_THEORY></metadata><data><meanElements><EPOCH>2025-12-29T19:06:46.641024</EPOCH><MEAN_MOTION>14.39586934</MEAN_MOTION><ECCENTRICITY>.0004472</ECCENTRICITY><INCLINATION>44.9941</INCLINATION><RA_OF_ASC_NODE>323.4778</RA_OF_ASC_NODE><ARG_OF_PERICENTER>233.1788</ARG_OF_PERICENTER><MEAN_ANOMALY>126.8651</MEAN_ANOMALY></meanElements><tleParameters><EPHEMERIS_TYPE>0</EPHEMERIS_TYPE><CLASSIFICATION_TYPE>U</CLASSIFICATION_TYPE><NORAD_CAT_ID>25417</NORAD_CAT_ID><ELEMENT_SET_NO>999</ELEMENT_SET_NO><REV_AT_EPOCH>43243</REV_AT_EPOCH><BSTAR>.82674E-3</BSTAR><MEAN_MOTION_DOT>.2465E-4</MEAN_MOTION_DOT><MEAN_MOTION_DDOT>0</MEAN_MOTION_DDOT></tleParameters></data></segment></body></omm>
<omm id="CCSDS_OMM_VERS" version="2.0">
<header><CREATION_DATE/><ORIGINATOR/></header><body><segment><metadata><OBJECT_NAME>ORBCOMM FM15</OBJECT_NAME><OBJECT_ID>1998-046F</OBJECT_ID><CENTER_NAME>EARTH</CENTER_NAME><REF_FRAME>TEME</REF_FRAME><TIME_SYSTEM>UTC</TIME_SYSTEM><MEAN_ELEMENT_THEORY>SGP4</MEAN_ELEMENT_THEORY></metadata><data><meanElements><EPOCH>2025-12-28T15:24:28.833696</EPOCH><MEAN_MOTION>14.39207628</MEAN_MOTION><ECCENTRICITY>.0004272</ECCENTRICITY><INCLINATION>44.9982</INCLINATION><RA_OF_ASC_NODE>334.7051</RA_OF_ASC_NODE><ARG_OF_PERICENTER>230.0316</ARG_OF_PERICENTER><MEAN_ANOMALY>130.0158</MEAN_ANOMALY></meanElements><tleParameters><EPHEMERIS_TYPE>0</EPHEMERIS_TYPE><CLASSIFICATION_TYPE>U</CLASSIFICATION_TYPE><NORAD_CAT_ID>25418</NORAD_CAT_ID><ELEMENT_SET_NO>999</ELEMENT_SET_NO><REV_AT_EPOCH>43225</REV_AT_EPOCH><BSTAR>.58211E-3</BSTAR><MEAN_MOTION_DOT>.1679E-4</MEAN_MOTION_DOT><MEAN_MOTION_DDOT>0</MEAN_MOTION_DDOT></tleParameters></data></segment></body></omm>
<omm id="CCSDS_OMM_VERS" version="2.0">
<header><CREATION_DATE/><ORIGINATOR/></header><body><segment><metadata><OBJECT_NAME>ORBCOMM FM14</OBJECT_NAME><OBJECT_ID>1998-046G</OBJECT_ID><CENTER_NAME>EARTH</CENTER_NAME><REF_FRAME>TEME</REF_FRAME><TIME_SYSTEM>UTC</TIME_SYSTEM><MEAN_ELEMENT_THEORY>SGP4</MEAN_ELEMENT_THEORY></metadata><data><meanElements><EPOCH>2025-12-28T06:15:13.306752</EPOCH><MEAN_MOTION>14.39626203</MEAN_MOTION><ECCENTRICITY>.0003025</ECCENTRICITY><INCLINATION>44.9971</INCLINATION><RA_OF_ASC_NODE>334.1588</RA_OF_ASC_NODE><ARG_OF_PERICENTER>236.3528</ARG_OF_PERICENTER><MEAN_ANOMALY>123.7032</MEAN_ANOMALY></meanElements><tleParameters><EPHEMERIS_TYPE>0</EPHEMERIS_TYPE><CLASSIFICATION_TYPE>U</CLASSIFICATION_TYPE><NORAD_CAT_ID>25419</NORAD_CAT_ID><ELEMENT_SET_NO>999</ELEMENT_SET_NO><REV_AT_EPOCH>43217</REV_AT_EPOCH><BSTAR>.59658E-3</BSTAR><MEAN_MOTION_DOT>.174E-4</MEAN_MOTION_DOT><MEAN_MOTION_DDOT>0</MEAN_MOTION_DDOT></tleParameters></data></segment></body></omm>
<omm id="CCSDS_OMM_VERS" version="2.0">
<header><CREATION_DATE/><ORIGINATOR/></header><body><segment><metadata><OBJECT_NAME>ORBCOMM FM13</OBJECT_NAME><OBJECT_ID>1998-046H</OBJECT_ID><CENTER_NAME>EARTH</CENTER_NAME><REF_FRAME>TEME</REF_FRAME><TIME_SYSTEM>UTC</TIME_SYSTEM><MEAN_ELEMENT_THEORY>SGP4</MEAN_ELEMENT_THEORY></metadata><data><meanElements><EPOCH>2025-12-28T06:33:30.257568</EPOCH><MEAN_MOTION>14.38235771</MEAN_MOTION><ECCENTRICITY>.0004398</ECCENTRICITY><INCLINATION>44.9987</INCLINATION><RA_OF_ASC_NODE>344.0525</RA_OF_ASC_NODE><ARG_OF_PERICENTER>200.6214</ARG_OF_PERICENTER><MEAN_ANOMALY>159.4458</MEAN_ANOMALY></meanElements><tleParameters><EPHEMERIS_TYPE>0</EPHEMERIS_TYPE><CLASSIFICATION_TYPE>U</CLASSIFICATION_TYPE><NORAD_CAT_ID>25420</NORAD_CAT_ID><ELEMENT_SET_NO>999</ELEMENT_SET_NO><REV_AT_EPOCH>43117</REV_AT_EPOCH><BSTAR>.51231E-3</BSTAR><MEAN_MOTION_DOT>.1429E-4</MEAN_MOTION_DOT><MEAN_MOTION_DDOT>0</MEAN_MOTION_DDOT></tleParameters></data></segment></body></omm>
<omm id="CCSDS_OMM_VERS" version="2.0">
<header><CREATION_DATE/><ORIGINATOR/></header><body><segment><metadata><OBJECT_NAME>ORBCOMM FM21</OBJECT_NAME><OBJECT_ID>1998-053A</OBJECT_ID><CENTER_NAME>EARTH</CENTER_NAME><REF_FRAME>TEME</REF_FRAME><TIME_SYSTEM>UTC</TIME_SYSTEM><MEAN_ELEMENT_THEORY>SGP4</MEAN_ELEMENT_THEORY></metadata><data><meanElements><EPOCH>2025-12-29T10:33:37.824768</EPOCH><MEAN_MOTION>14.37833607</MEAN_MOTION><ECCENTRICITY>.0001997</ECCENTRICITY><INCLINATION>45.0087</INCLINATION><RA_OF_ASC_NODE>64.5289</RA_OF_ASC_NODE><ARG_OF_PERICENTER>200.9444</ARG_OF_PERICENTER><MEAN_ANOMALY>159.1323</MEAN_ANOMALY></meanElements><tleParameters><EPHEMERIS_TYPE>0</EPHEMERIS_TYPE><CLASSIFICATION_TYPE>U</CLASSIFICATION_TYPE><NORAD_CAT_ID>25475</NORAD_CAT_ID><ELEMENT_SET_NO>999</ELEMENT_SET_NO><REV_AT_EPOCH>42534</REV_AT_EPOCH><BSTAR>.4983E-3</BSTAR><MEAN_MOTION_DOT>.1374E-4</MEAN_MOTION_DOT><MEAN_MOTION_DDOT>0</MEAN_MOTION_DDOT></tleParameters></data></segment></body></omm>
<omm id="CCSDS_OMM_VERS" version="2.0">
<header><CREATION_DATE/><ORIGINATOR/></header><body><segment><metadata><OBJECT_NAME>ORBCOMM FM22</OBJECT_NAME><OBJECT_ID>1998-053B</OBJECT_ID><CENTER_NAME>EARTH</CENTER_NAME><REF_FRAME>TEME</REF_FRAME><TIME_SYSTEM>UTC</TIME_SYSTEM><MEAN_ELEMENT_THEORY>SGP4</MEAN_ELEMENT_THEORY></metadata><data><meanElements><EPOCH>2025-12-29T16:11:01.398336</EPOCH><MEAN_MOTION>14.39016167</MEAN_MOTION><ECCENTRICITY>.0002769</ECCENTRICITY><INCLINATION>45.0079</INCLINATION><RA_OF_ASC_NODE>56.5999</RA_OF_ASC_NODE><ARG_OF_PERICENTER>171.9100</ARG_OF_PERICENTER><MEAN_ANOMALY>188.1794</MEAN_ANOMALY></meanElements><tleParameters><EPHEMERIS_TYPE>0</EPHEMERIS_TYPE><CLASSIFICATION_TYPE>U</CLASSIFICATION_TYPE><NORAD_CAT_ID>25476</NORAD_CAT_ID><ELEMENT_SET_NO>999</ELEMENT_SET_NO><REV_AT_EPOCH>42542</REV_AT_EPOCH><BSTAR>.65377E-3</BSTAR><MEAN_MOTION_DOT>.1895E-4</MEAN_MOTION_DOT><MEAN_MOTION_DDOT>0</MEAN_MOTION_DDOT></tleParameters></data></segment></body></omm>
<omm id="CCSDS_OMM_VERS" version="2.0">
<header><CREATION_DATE/><ORIGINATOR/></header><body><segment><metadata><OBJECT_NAME>ORBCOMM FM23</OBJECT_NAME><OBJECT_ID>1998-053C</OBJECT_ID><CENTER_NAME>EARTH</CENTER_NAME><REF_FRAME>TEME</REF_FRAME><TIME_SYSTEM>UTC</TIME_SYSTEM><MEAN_ELEMENT_THEORY>SGP4</MEAN_ELEMENT_THEORY></metadata><data><meanElements><EPOCH>2025-12-29T11:33:51.926400</EPOCH><MEAN_MOTION>14.38076568</MEAN_MOTION><ECCENTRICITY>.0002281</ECCENTRICITY><INCLINATION>45.0085</INCLINATION><RA_OF_ASC_NODE>66.1397</RA_OF_ASC_NODE><ARG_OF_PERICENTER>174.7858</ARG_OF_PERICENTER><MEAN_ANOMALY>185.3014</MEAN_ANOMALY></meanElements><tleParameters><EPHEMERIS_TYPE>0</EPHEMERIS_TYPE><CLASSIFICATION_TYPE>U</CLASSIFICATION_TYPE><NORAD_CAT_ID>25477</NORAD_CAT_ID><ELEMENT_SET_NO>999</ELEMENT_SET_NO><REV_AT_EPOCH>42550</REV_AT_EPOCH><BSTAR>.5937E-3</BSTAR><MEAN_MOTION_DOT>.1673E-4</MEAN_MOTION_DOT><MEAN_MOTION_DDOT>0</MEAN_MOTION_DDOT></tleParameters></data></segment></body></omm>

</ndm>
